OBJECT_NAME,OBJECT_ID,EPOCH,MEAN_MOTION,ECCENTRICITY,INCLINATION,RA_OF_ASC_NODE,ARG_OF_PERICENTER,MEAN_ANOMALY,EPHEMERIS_TYPE,CLASSIFICATION_TYPE,NORAD_CAT_ID,ELEMENT_SET_NO,REV_AT_EPOCH,BSTAR,MEAN_MOTION_DOT,MEAN_MOTION_DDOT
SKYSAT-C4,2016-058B,2026-07-07T11:43:48.731808,15.49254680,.0003163,96.9169,209.4180,130.0488,230.1042,0,U,41771,999,54861,.22367E-3,.1213E-3,0
SKYSAT-C5,2016-058C,2026-07-06T22:14:09.709728,15.34766054,.0002457,97.0459,227.6879,176.3166,183.8096,0,U,41772,999,54677,.18242E-3,.6073E-4,0
SKYSAT-C2,2016-058D,2026-07-06T14:15:23.124096,15.42537650,.000256,97.0163,208.9626,24.3070,335.8299,0,U,41773,999,54804,.2435E-3,.10488E-3,0
SKYSAT-C3,2016-058E,2026-07-07T10:34:27.408864,15.53450138,.0002001,96.9001,218.5177,135.7039,224.4376,0,U,41774,999,54925,.27706E-3,.17481E-3,0
ALSAT-1B,2016-059C,2026-07-07T11:50:09.913056,14.72291442,.0009738,97.7755,196.3806,152.3211,207.8517,0,U,41785,999,52356,.79234E-4,.454E-5,0
PATHFINDER 1,2016-059E,2026-07-07T10:52:27.045120,14.67687013,.0029414,97.8171,186.8151,139.4170,220.9236,0,U,41787,999,52268,.97813E-4,.513E-5,0
SCATSAT 1,2016-059H,2026-07-07T03:56:07.166976,14.79573399,.0054618,98.1180,252.1355,182.2711,177.8260,0,U,41790,999,10454,.16084E-3,.1178E-4,0
GOKTURK 1A,2016-073A,2026-07-07T13:28:44.470848,14.62789878,.0001397,98.1220,82.9140,78.9553,281.1806,0,U,41875,999,51180,.62657E-4,.273E-5,0
RESOURCESAT-2A,2016-074A,2026-07-07T11:33:37.521792,14.21608035,.0002811,98.7516,261.8201,44.5128,315.6275,0,U,41877,999,49718,.17543E-3,.341E-5,0
CARTOSAT-2D,2017-008A,2026-07-07T12:14:57.486912,15.19249308,.0005211,97.4091,247.4365,161.5270,198.6155,0,U,41948,999,52066,.25174E-3,.524E-4,0
SENTINEL-2B,2017-013A,2026-07-07T11:41:35.046816,14.30814220,.0001192,98.5681,262.9752,89.5708,270.5612,0,U,42063,999,48754,.96998E-4,.211E-5,0
CARTOSAT-2E,2017-036C,2026-07-06T09:47:56.518656,15.19324226,.00027513,97.4260,246.8938,216.0801,144.0249,0,U,42767,999,50106,.14512509E-3,.2997E-4,0
FORMOSAT-5,2017-049A,2026-07-07T11:11:01.110048,14.50906318,.0011857,98.2248,263.3248,27.0561,333.1249,0,U,42920,999,46961,.38753E-4,.109E-5,0
SENTINEL-5P,2017-064A,2026-07-07T06:58:07.807296,14.19522407,.0001108,98.7927,130.2790,92.5300,267.6003,0,U,42969,999,45241,.40959E-4,.42E-6,0
SKYSAT-C11,2017-068A,2026-07-06T23:06:10.068192,15.58985087,.0000652,97.4374,337.6719,158.6283,201.5000,0,U,42987,999,48632,.3051E-3,.23637E-3,0
SKYSAT-C10,2017-068B,2026-07-06T22:00:01.585728,15.35000808,.0001286,97.4529,324.9630,108.8962,251.2421,0,U,42988,999,48538,.25039E-3,.8421E-4,0
SKYSAT-C9,2017-068C,2026-07-07T08:35:59.293824,15.42079854,.0009188,97.4448,326.5388,69.8221,290.4013,0,U,42989,999,48586,.21994E-3,.9325E-4,0
SKYSAT-C8,2017-068D,2026-07-06T22:08:53.759616,15.37378325,.000119,97.4547,324.8452,97.2210,262.9170,0,U,42990,999,48534,.22874E-3,.8297E-4,0
SKYSAT-C7,2017-068E,2026-07-07T04:15:30.087648,15.37334035,.0006415,97.4556,326.0941,47.3462,312.8322,0,U,42991,999,48544,.20626E-3,.7466E-4,0
SKYSAT-C6,2017-068F,2026-07-06T21:49:25.667904,15.34062756,.0005364,97.4672,325.7029,104.5619,255.6218,0,U,42992,999,48534,.20626E-3,.6719E-4,0
CARTOSAT-2F,2018-004A,2026-07-07T11:52:28.873632,15.19236178,.0002143,97.4777,247.9306,151.6299,208.5053,0,U,43111,999,47041,.24781E-3,.5153E-4,0
GAOFEN-1 02,2018-031A,2026-07-07T11:51:49.280832,14.76467749,.0001909,98.0512,250.9639,328.1591,31.9503,0,U,43259,999,44569,.16527E-3,.1099E-4,0
GAOFEN-1 03,2018-031B,2026-07-07T12:57:48.312864,14.76455194,.0002989,98.0508,250.8655,35.5291,324.6117,0,U,43260,999,44569,.88699E-4,.566E-5,0
GAOFEN-1 04,2018-031D,2026-07-07T12:22:52.761216,14.76464622,.0001601,98.0512,251.0350,58.0129,302.1236,0,U,43262,999,44568,.84772E-4,.538E-5,0
SENTINEL-3B,2018-039A,2026-07-07T04:14:28.024800,14.26740486,.0000963,98.6239,255.4214,118.9874,241.1403,0,U,43437,999,42697,.51893E-4,.82E-6,0
GAOFEN-5 01,2018-043A,2026-07-06T22:16:29.917920,14.60619540,.0002527,98.4582,159.9303,48.2005,311.9410,0,U,43461,999,43457,.72983E-4,.306E-5,0
GAOFEN-6,2018-048A,2026-07-06T14:08:22.799328,14.76375241,.001204,98.0955,250.2710,105.7369,254.5169,0,U,43484,999,43625,-.2592E-5,-.71E-6,0
GAOFEN-11 01,2018-063A,2026-07-07T12:01:11.046720,15.55910898,.0002309,97.1275,255.3300,237.3633,122.7400,0,U,43585,999,44350,.26462E-3,.18261E-3,0
ICESAT-2,2018-070A,2026-07-07T12:27:34.763904,15.28257742,.0005939,92.0083,296.4734,81.2734,278.9187,0,U,43613,999,43556,.24469E-3,.6737E-4,0
HYSIS,2018-096A,2026-07-07T12:18:18.657216,14.78661850,.0001858,97.9826,255.1010,86.2248,273.9175,0,U,43719,999,41042,.14486E-3,.101E-4,0
KAZSTSAT,2018-099AB,2026-07-07T01:04:18.280992,14.99939036,.000795,97.4311,219.0757,11.5065,348.6339,0,U,43783,999,41428,.13466E-3,.1617E-4,0
